FALCONSAT-6             
1 43815U 18099BK  26068.72544389  .00005029  00000+0  19477-3 0  9998
2 43815  97.3865 145.8165 0014370 297.0944 181.0714 15.26532865398556
STARLINK-35168          
1 65509U 25198T   26068.84622419  .00029493  00000+0  10038-2 0  9998
2 65509  53.1576 270.2991 0000830  85.4379 274.6717 15.30205231 28647
