[{"OBJECT_NAME":"FALCONSAT-6","OBJECT_ID":"2018-099BK","EPOCH":"2026-03-09T17:24:38.352096","MEAN_MOTION":15.26532865,"ECCENTRICITY":0.00143698,"INCLINATION":97.3865,"RA_OF_ASC_NODE":145.8165,"ARG_OF_PERICENTER":297.0944,"MEAN_ANOMALY":181.0714,"EPHEMERIS_TYPE":0,"CLASSIFICATION_TYPE":"U","NORAD_CAT_ID":43815,"ELEMENT_SET_NO":999,"REV_AT_EPOCH":39855,"BSTAR":0.00019476898,"MEAN_MOTION_DOT":5.029e-5,"MEAN_MOTION_DDOT":0},{"OBJECT_NAME":"STARLINK-35168","OBJECT_ID":"2025-198T","EPOCH":"2026-03-09T20:18:33.770880","MEAN_MOTION":15.30205232,"ECCENTRICITY":8.304e-5,"INCLINATION":53.1576,"RA_OF_ASC_NODE":270.2991,"ARG_OF_PERICENTER":85.4379,"MEAN_ANOMALY":274.6717,"EPHEMERIS_TYPE":0,"CLASSIFICATION_TYPE":"U","NORAD_CAT_ID":65509,"ELEMENT_SET_NO":999,"REV_AT_EPOCH":2864,"BSTAR":0.001003799,"MEAN_MOTION_DOT":0.00029493,"MEAN_MOTION_DDOT":0}]
